IRIDIUM 57              
1 25273U 98019B   24292.40011621  .00001857  00000+0  63916-3 0  9998
2 25273  86.3945 246.4758 0002402  87.6231 272.5240 14.35497238390300
IRIDIUM 63              
1 25286U 98021B   24291.67787741  .00001777  00000+0  60419-3 0  9992
2 25286  86.4053 183.7609 0002201  76.2214 283.9228 14.36106873389038
IRIDIUM 69              
1 25319U 98026A   24292.21825923  .00002680  00000+0  83798-3 0  9999
2 25319  86.4047 197.5303 0004590  90.9009 269.2716 14.40415755388462
IRIDIUM 71              
1 25320U 98026B   24291.56727544  .00001847  00000+0  57260-3 0  9997
2 25320  86.4048 192.5478 0003262 122.3449 237.8067 14.40681380388904
IRIDIUM 73              
1 25344U 98032C   24291.66048434  .00002289  00000+0  57376-3 0  9994
2 25344  86.4437 149.7793 0002800  85.5606 274.5919 14.51015044395382
IRIDIUM 82              
1 25467U 98051A   24291.89288491  .00025619  00000+0  11017-2 0  9998
2 25467  86.3770 227.2816 0117739 125.8640 235.3605 15.16337034387048
